STARLINK-2448           
1 48111U 21027V   26068.55167628  .00057247  00000+0  18961-2 0  9990
2 48111  53.1602 155.5804 0001744  65.6838 294.4345 15.30774816272648
TEVEL2-6                
1 63215U 25052F   26068.64958975  .00021046  00000+0  70909-3 0  9996
2 63215  97.4016 325.0381 0004769  95.6604 264.5181 15.30760889 54861
